1 40294U 14068A   21001.10473149  .00000001  00000-0  00000+0 0  9991
2 40294  55.4524 109.0281 0030752  47.8575 312.4014  2.00562624 45214
1 40294U 14068A   21001.60331819  .00000004  00000-0  00000-0 0  9997
2 40294  55.4527 109.0083 0030756  47.8036 312.4579  2.00562636 45245
1 40294U 14068A   21002.60048834  .00000008  00000-0  00000-0 0  9994
2 40294  55.4532 108.9687 0030775  47.7886 312.4778  2.00562671 45264
1 40294U 14068A   21003.09907102  .00000009  00000-0  00000-0 0  9991
2 40294  55.4535 108.9490 0030778  47.7443 312.5237  2.00562746 45276
1 40294U 14068A   21006.09056029 -.00000009  00000-0  00000-0 0  9998
2 40294  55.4553 108.8300 0030694  47.4178 312.8479  2.00562865 45334
1 40294U 14068A   21007.58629596 -.00000027  00000-0  00000-0 0  9998
2 40294  55.4561 108.7705 0030686  47.3659 312.8943  2.00562951 45360
1 40294U 14068A   21009.58061138 -.00000047  00000-0  00000-0 0  9994
2 40294  55.4572 108.6912 0030765  47.4845 312.7720  2.00563171 45409
1 40294U 14068A   21010.07919206 -.00000050  00000-0  00000-0 0  9992
2 40294  55.4575 108.6714 0030751  47.4423 312.8139  2.00563222 45412
1 40294U 14068A   21010.57777289 -.00000051  00000-0  00000-0 0  9991
2 40294  55.4580 108.6516 0030740  47.4117 312.8448  2.00563276 45429
1 40294U 14068A   21012.07352143 -.00000049  00000-0  00000-0 0  9993
2 40294  55.4589 108.5921 0030739  47.3707 312.8906  2.00563338 45450
1 40294U 14068A   21016.56076887 -.00000027  00000-0  00000+0 0  9994
2 40294  55.4613 108.4138 0030750  47.1881 313.0952  2.00563779 45522
1 40294U 14068A   21016.56076887 -.00000027  00000-0  00000-0 0  9995
2 40294  55.4613 108.4138 0030750  47.1881 313.0952  2.00563779 45544
1 40294U 14068A   21019.55224579 -.00000040  00000-0  00000-0 0  9995
2 40294  55.4625 108.2949 0030785  47.0887 313.1972  2.00564100 45607
1 40294U 14068A   21019.55224763 -.00000040  00000-0  00000+0 0  9999
2 40294  55.4625 108.2949 0030819  47.2208 313.0660  2.00564034 45580
1 40294U 14068A   21019.55224763 -.00000040  00000-0  00000-0 0  9990
2 40294  55.4625 108.2949 0030819  47.2208 313.0660  2.00564034 45603
1 40294U 14068A   21021.54655008 -.00000049  00000-0  00000-0 0  9991
2 40294  55.4636 108.2156 0030828  47.1194 313.1656  2.00564468 45649
1 40294U 14068A   21022.04513616 -.00000049  00000-0  00000-0 0  9995
2 40294  55.4638 108.1958 0030778  46.8504 313.4328  2.00564221 45652
1 40294U 14068A   21023.04229319 -.00000049  00000-0  00000-0 0  9990
2 40294  55.4643 108.1561 0030792  46.8076 313.4758  2.00564281 45673
1 40294U 14068A   21024.53802974 -.00000042  00000-0  00000-0 0  9992
2 40294  55.4651 108.0966 0030787  46.7256 313.5600  2.00564363 45705
1 40294U 14068A   21025.53518961 -.00000034  00000-0  00000+0 0  9993
2 40294  55.4656 108.0570 0030792  46.6790 313.6100  2.00564432 45702
1 40294U 14068A   21025.53518961 -.00000034  00000-0  00000-0 0  9994
2 40294  55.4656 108.0570 0030792  46.6790 313.6100  2.00564432 45724
1 40294U 14068A   21028.52667559 -.00000008  00000-0  00000+0 0  9994
2 40294  55.4673 107.9380 0030798  46.4981 313.8066  2.00564605 45765
1 40294U 14068A   21028.52667559 -.00000008  00000-0  00000-0 0  9995
2 40294  55.4673 107.9380 0030798  46.4981 313.8066  2.00564605 45787
1 40294U 14068A   21029.52383602 -.00000001  00000-0  00000-0 0  9993
2 40294  55.4678 107.8983 0030799  46.4290 313.8808  2.00564684 45808
1 40294U 14068A   21030.52099671  .00000002  00000-0  00000-0 0  9995
2 40294  55.4683 107.8587 0030805  46.3827 313.9309  2.00564686 45806
1 40294U 14068A   21031.51815150  .00000001  00000-0  00000-0 0  9992
2 40294  55.4689 107.8190 0030809  46.2934 314.0218  2.00564774 45847
1 40294U 14068A   21033.51245345 -.00000012  00000-0  00000-0 0  9990
2 40294  55.4700 107.7398 0030805  46.0993 314.2122  2.00564872 45888
1 40294U 14068A   21034.50959335 -.00000023  00000-0  00000-0 0  9993
2 40294  55.4706 107.7001 0030831  46.1756 314.1329  2.00565195 45902
1 40294U 14068A   21035.00816498 -.00000028  00000-0  00000-0 0  9996
2 40294  55.4708 107.6802 0030926  46.5899 313.7192  2.00565380 45919
1 40294U 14068A   21038.99677447 -.00000044  00000-0  00000+0 0  9993
2 40294  55.4732 107.5218 0030879  46.1249 314.1801  2.00564915 45979
1 40294U 14068A   21038.99677447 -.00000044  00000-0  00000-0 0  9994
2 40294  55.4732 107.5218 0030879  46.1249 314.1801  2.00564915 45991
1 40294U 14068A   21038.99677805 -.00000044  00000-0  00000-0 0  9992
2 40294  55.4732 107.5216 0030831  46.0350 314.2692  2.00565255 45996
1 40294U 14068A   21039.99393164 -.00000038  00000-0  00000-0 0  9999
2 40294  55.4738 107.4820 0030945  46.3672 313.9438  2.00565491 46018
1 40294U 14068A   21040.49250981 -.00000034  00000-0  00000-0 0  9991
2 40294  55.4741 107.4622 0030893  46.0700 314.2417  2.00565497 46021
1 40294U 14068A   21040.99108822 -.00000030  00000-0  00000-0 0  9998
2 40294  55.4746 107.4423 0030875  46.0111 314.3029  2.00565569 46032
1 40294U 14068A   21041.48966691 -.00000027  00000-0  00000-0 0  9995
2 40294  55.4749 107.4225 0030883  46.0160 314.3005  2.00565582 46048
1 40294U 14068A   21041.98824494 -.00000023  00000-0  00000-0 0  9990
2 40294  55.4751 107.4027 0030893  45.9891 314.3298  2.00565652 46054
1 40294U 14068A   21042.48682239 -.00000020  00000-0  00000-0 0  9992
2 40294  55.4751 107.3829 0030917  45.9704 314.3508  2.00565650 46066
1 40294U 14068A   21043.48397707 -.00000017  00000-0  00000-0 0  9992
2 40294  55.4758 107.3433 0030915  45.9427 314.3817  2.00565690 46083
1 40294U 14068A   21044.48112407 -.00000017  00000-0  00000-0 0  9995
2 40294  55.4757 107.3036 0030934  45.9131 314.4131  2.00565910 46102
1 40294U 14068A   21045.47827080 -.00000019  00000-0  00000-0 0  9997
2 40294  55.4766 107.2640 0030940  45.8351 314.4912  2.00566055 46122
1 40294U 14068A   21046.47542574 -.00000024  00000-0  00000-0 0  9996
2 40294  55.4773 107.2244 0030949  45.7384 314.5865  2.00565862 46149
1 40294U 14068A   21047.47256774 -.00000029  00000-0  00000-0 0  9996
2 40294  55.4779 107.1847 0030961  45.6442 314.6788  2.00566049 46166
1 40294U 14068A   21048.46971057 -.00000032  00000-0  00000-0 0  9998
2 40294  55.4785 107.1451 0030983  45.6178 314.7034  2.00566193 46181
1 40294U 14068A   21052.95687024 -.00000012  00000-0  00000+0 0  9992
2 40294  55.4813 106.9667 0031041  45.0540 315.2668  2.00566489 46257
1 40294U 14068A   21052.95687024 -.00000012  00000-0  00000-0 0  9993
2 40294  55.4813 106.9667 0031041  45.0540 315.2668  2.00566489 46279
1 40294U 14068A   21054.45259541  .00000003  00000-0  00000-0 0  9998
2 40294  55.4823 106.9073 0031059  45.0595 315.2672  2.00566562 46301
1 40294U 14068A   21057.94261752  .00000028  00000-0  00000+0 0  9998
2 40294  55.4848 106.7685 0031120  45.0125 315.3272  2.00566759 46353
1 40294U 14068A   21057.94261752  .00000028  00000-0  00000-0 0  9999
2 40294  55.4848 106.7685 0031120  45.0125 315.3272  2.00566759 46375
1 40294U 14068A   21062.42973986  .00000001  00000-0  00000-0 0  9998
2 40294  55.4875 106.5900 0031439  45.2022 315.1266  2.00567030 46468
1 40294U 14068A   21065.42115170 -.00000014  00000-0  00000+0 0  9998
2 40294  55.4894 106.4710 0031398  44.7845 315.5331  2.00567282 46509
1 40294U 14068A   21065.42115170 -.00000014  00000-0  00000-0 0  9999
2 40294  55.4894 106.4710 0031398  44.7845 315.5331  2.00567282 46521
1 40294U 14068A   21068.41258295  .00000004  00000-0  00000+0 0  9994
2 40294  55.4915 106.3523 0031305  44.9625 315.3621  2.00567100 46565
1 40294U 14068A   21068.41258295  .00000004  00000-0  00000-0 0  9995
2 40294  55.4915 106.3523 0031305  44.9625 315.3621  2.00567100 46587
1 40294U 14068A   21068.91115542  .00000008  00000-0  00000-0 0  9991
2 40294  55.4914 106.3324 0031288  44.9818 315.3444  2.00567647 46599
1 40294U 14068A   21069.90829863  .00000014  00000-0  00000-0 0  9996
2 40294  55.4918 106.2928 0031310  44.9770 315.3518  2.00567734 46617
1 40294U 14068A   21071.40400829  .00000017  00000-0  00000-0 0  9994
2 40294  55.4929 106.2334 0031337  44.9710 315.3592  2.00567844 46640
1 40294U 14068A   21071.90257677  .00000016  00000-0  00000-0 0  9999
2 40294  55.4937 106.2136 0031381  44.8868 315.4430  2.00567944 46655
1 40294U 14068A   21074.39541179  .00000006  00000-0  00000+0 0  9996
2 40294  55.4955 106.1147 0031428  44.7766 315.5465  2.00568138 46682
1 40294U 14068A   21074.39541179  .00000006  00000-0  00000-0 0  9997
2 40294  55.4955 106.1147 0031428  44.7766 315.5465  2.00568138 46705
1 40294U 14068A   21075.39254634  .00000002  00000-0  00000-0 0  9991
2 40294  55.4965 106.0751 0031462  44.7460 315.5734  2.00568170 46722
1 40294U 14068A   21075.39254646  .00000002  00000-0  00000-0 0  9994
2 40294  55.4965 106.0751 0031453  44.7448 315.5745  2.00568145 46722
1 40294U 14068A   21076.88824349  .00000000  00000-0  00000-0 0  9990
2 40294  55.4970 106.0157 0031512  44.6753 315.6392  2.00568355 46757
1 40294U 14068A   21077.88537771  .00000003  00000-0  00000-0 0  9994
2 40294  55.4973 105.9761 0031544  44.6447 315.6675  2.00568396 46775
1 40294U 14068A   21078.38394454  .00000005  00000-0  00000-0 0  9991
2 40294  55.4978 105.9563 0031553  44.6730 315.6388  2.00568424 46789
1 40294U 14068A   21079.38107979  .00000012  00000-0  00000-0 0  9994
2 40294  55.4984 105.9167 0031576  44.6514 315.6601  2.00568496 46801
1 40294U 14068A   21081.37535516  .00000032  00000-0  00000-0 0  9990
2 40294  55.4999 105.8376 0031617  44.6155 315.6991  2.00568605 46843
1 40294U 14068A   21081.87391733  .00000037  00000-0  00000-0 0  9991
2 40294  55.5005 105.8177 0031633  44.5585 315.7573  2.00568894 46853
1 40294U 14068A   21083.36963220  .00000051  00000-0  00000-0 0  9999
2 40294  55.5014 105.7584 0031658  44.5851 315.7351  2.00568710 46881
1 40294U 14068A   21084.36676885  .00000057  00000-0  00000-0 0  9994
2 40294  55.5022 105.7188 0031686  44.5585 315.7636  2.00568766 46905
